[
  { "name": "India", "dial_code": "+91", "code": "IN" },
  { "name": "United States", "dial_code": "+1", "code": "US" },
  { "name": "United Kingdom", "dial_code": "+44", "code": "GB" },
  { "name": "Australia", "dial_code": "+61", "code": "AU" },
  { "name": "Japan", "dial_code": "+81", "code": "JP" },
  { "name": "Germany", "dial_code": "+49", "code": "DE" },
  { "name": "France", "dial_code": "+33", "code": "FR" },
  { "name": "China", "dial_code": "+86", "code": "CN" },
  { "name": "UAE", "dial_code": "+971", "code": "AE" },
  { "name": "Russia", "dial_code": "+7", "code": "RU" },
  { "name": "Italy", "dial_code": "+39", "code": "IT" },
  { "name": "Spain", "dial_code": "+34", "code": "ES" },
  { "name": "Brazil", "dial_code": "+55", "code": "BR" },
  { "name": "South Africa", "dial_code": "+27", "code": "ZA" },
  { "name": "South Korea", "dial_code": "+82", "code": "KR" },
  { "name": "Singapore", "dial_code": "+65", "code": "SG" },
  { "name": "Indonesia", "dial_code": "+62", "code": "ID" },
  { "name": "Bangladesh", "dial_code": "+880", "code": "BD" },
  { "name": "Pakistan", "dial_code": "+92", "code": "PK" },
  { "name": "Egypt", "dial_code": "+20", "code": "EG" },
  { "name": "Saudi Arabia", "dial_code": "+966", "code": "SA" },
  { "name": "Philippines", "dial_code": "+63", "code": "PH" },
  { "name": "Malaysia", "dial_code": "+60", "code": "MY" },
  { "name": "Nigeria", "dial_code": "+234", "code": "NG" },
  { "name": "Morocco", "dial_code": "+212", "code": "MA" },
  { "name": "Portugal", "dial_code": "+351", "code": "PT" },
  { "name": "Turkey", "dial_code": "+90", "code": "TR" },
  { "name": "Ukraine", "dial_code": "+380", "code": "UA" },
  { "name": "Azerbaijan", "dial_code": "+994", "code": "AZ" },
  { "name": "Uzbekistan", "dial_code": "+998", "code": "UZ" },
  { "name": "Vietnam", "dial_code": "+84", "code": "VN" },
  { "name": "Thailand", "dial_code": "+66", "code": "TH" },
  { "name": "New Zealand", "dial_code": "+64", "code": "NZ" },
  { "name": "Finland", "dial_code": "+358", "code": "FI" },
  { "name": "Georgia", "dial_code": "+995", "code": "GE" },
  { "name": "Greece", "dial_code": "+30", "code": "GR" },
  { "name": "Hong Kong", "dial_code": "+852", "code": "HK" },
  { "name": "Hungary", "dial_code": "+36", "code": "HU" },
  { "name": "Ireland", "dial_code": "+353", "code": "IE" },
  { "name": "Israel", "dial_code": "+972", "code": "IL" },
  { "name": "Kenya", "dial_code": "+254", "code": "KE" },
  { "name": "Lithuania", "dial_code": "+370", "code": "LT" },
  { "name": "Luxembourg", "dial_code": "+352", "code": "LU" },
  { "name": "Malta", "dial_code": "+356", "code": "MT" },
  { "name": "Mexico", "dial_code": "+52", "code": "MX" },
  { "name": "Netherlands", "dial_code": "+31", "code": "NL" },
  { "name": "Norway", "dial_code": "+47", "code": "NO" },
  { "name": "Poland", "dial_code": "+48", "code": "PL" },
  { "name": "Romania", "dial_code": "+40", "code": "RO" },
  { "name": "Sweden", "dial_code": "+46", "code": "SE" },
  { "name": "Switzerland", "dial_code": "+41", "code": "CH" },
  { "name": "Taiwan", "dial_code": "+886", "code": "TW" }
]
